[{"ORDINAL":"1","COMMENT":"GENERATED VIA SPACETRACK.ORG API","ORIGINATOR":"JSPOC","NORAD_CAT_ID":"26547","OBJECT_NAME":"UNISAT","OBJECT_TYPE":"PAYLOAD","CLASSIFICATION_TYPE":"U","INTLDES":"00057C","EPOCH":"2016-06-23 16:53:14","EPOCH_MICROSECONDS":"129664","MEAN_MOTION":"14.89479023","ECCENTRICITY":"0.0058377","INCLINATION":"64.5524","RA_OF_ASC_NODE":"66.3743","ARG_OF_PERICENTER":"281.3666","MEAN_ANOMALY":"78.1388","EPHEMERIS_TYPE":"0","ELEMENT_SET_NO":"999","REV_AT_EPOCH":"85219","BSTAR":"3.9622e-05","MEAN_MOTION_DOT":"3.92e-06","MEAN_MOTION_DDOT":"0","FILE":"2050789","TLE_LINE0":"0 UNISAT","TLE_LINE1":"1 26547U 00057C   16175.70363576  .00000392  00000-0  39622-4 0  9993","TLE_LINE2":"2 26547  64.5524  66.3743 0058377 281.3666  78.1388 14.89479023852190","OBJECT_ID":"2000-057C","OBJECT_NUMBER":"26547","SEMIMAJOR_AXIS":"6977.699","PERIOD":"96.678","APOGEE":"640.297","PERIGEE":"558.830"},{"ORDINAL":"1","COMMENT":"GENERATED VIA SPACETRACK.ORG API","ORIGINATOR":"JSPOC","NORAD_CAT_ID":"26548","OBJECT_NAME":"TIUNGSAT 1","OBJECT_TYPE":"PAYLOAD","CLASSIFICATION_TYPE":"U","INTLDES":"00057D","EPOCH":"2016-06-22 22:43:44","EPOCH_MICROSECONDS":"82336","MEAN_MOTION":"14.88755106","ECCENTRICITY":"0.0050682","INCLINATION":"64.5516","RA_OF_ASC_NODE":"42.3042","ARG_OF_PERICENTER":"272.5197","MEAN_ANOMALY":"87.011","EPHEMERIS_TYPE":"0","ELEMENT_SET_NO":"999","REV_AT_EPOCH":"85241","BSTAR":"2.8841e-05","MEAN_MOTION_DOT":"1.14e-06","MEAN_MOTION_DDOT":"0","FILE":"2050785","TLE_LINE0":"0 TIUNGSAT 1","TLE_LINE1":"1 26548U 00057D   16174.94703799 +.00000114 +00000-0 +28841-4 0  9997","TLE_LINE2":"2 26548 064.5516 042.3042 0050682 272.5197 087.0110 14.88755106852415","OBJECT_ID":"2000-057D","OBJECT_NUMBER":"26548","SEMIMAJOR_AXIS":"6979.961","PERIOD":"96.725","APOGEE":"637.201","PERIGEE":"566.450"},{"ORDINAL":"1","COMMENT":"GENERATED VIA SPACETRACK.ORG API","ORIGINATOR":"JSPOC","NORAD_CAT_ID":"26549","OBJECT_NAME":"SAUDISAT 1B","OBJECT_TYPE":"PAYLOAD","CLASSIFICATION_TYPE":"U","INTLDES":"00057E","EPOCH":"2016-06-22 23:06:59","EPOCH_MICROSECONDS":"704128","MEAN_MOTION":"14.83198284","ECCENTRICITY":"0.0058871","INCLINATION":"64.5528","RA_OF_ASC_NODE":"153.0642","ARG_OF_PERICENTER":"282.5909","MEAN_ANOMALY":"76.8618","EPHEMERIS_TYPE":"0","ELEMENT_SET_NO":"999","REV_AT_EPOCH":"85015","BSTAR":"2.476e-05","MEAN_MOTION_DOT":"5.3e-07","MEAN_MOTION_DDOT":"0","FILE":"2050785","TLE_LINE0":"0 SAUDISAT 1B","TLE_LINE1":"1 26549U 00057E   16174.96319102 +.00000053 +00000-0 +24760-4 0  9999","TLE_LINE2":"2 26549 064.5528 153.0642 0058871 282.5909 076.8618 14.83198284850156","OBJECT_ID":"2000-057E","OBJECT_NUMBER":"26549","SEMIMAJOR_AXIS":"6997.383","PERIOD":"97.087","APOGEE":"660.443","PERIGEE":"578.054"},{"ORDINAL":"1","COMMENT":"GENERATED VIA SPACETRACK.ORG API","ORIGINATOR":"JSPOC","NORAD_CAT_ID":"26554","OBJECT_NAME":"NSS 11 (AAP-1)","OBJECT_TYPE":"PAYLOAD","CLASSIFICATION_TYPE":"U","INTLDES":"00059A","EPOCH":"2016-06-22 23:24:00","EPOCH_MICROSECONDS":"533088","MEAN_MOTION":"1.00265683","ECCENTRICITY":"0.0002792","INCLINATION":"0.0119","RA_OF_ASC_NODE":"22.4195","ARG_OF_PERICENTER":"82.4449","MEAN_ANOMALY":"265.875","EPHEMERIS_TYPE":"0","ELEMENT_SET_NO":"999","REV_AT_EPOCH":"5763","BSTAR":"0.0001","MEAN_MOTION_DOT":"0","MEAN_MOTION_DDOT":"0","FILE":"2050797","TLE_LINE0":"0 NSS 11 (AAP-1)","TLE_LINE1":"1 26554U 00059A   16174.97500617  .00000000  00000-0  10000-3 0  9994","TLE_LINE2":"2 26554   0.0119  22.4195 0002792  82.4449 265.8750  1.00265683 57634","OBJECT_ID":"2000-059A","OBJECT_NUMBER":"26554","SEMIMAJOR_AXIS":"42166.442","PERIOD":"1436.184","APOGEE":"35800.080","PERIGEE":"35776.534"},{"ORDINAL":"1","COMMENT":"GENERATED VIA SPACETRACK.ORG API","ORIGINATOR":"JSPOC","NORAD_CAT_ID":"26559","OBJECT_NAME":"NSAT 110","OBJECT_TYPE":"PAYLOAD","CLASSIFICATION_TYPE":"U","INTLDES":"00060A","EPOCH":"2016-06-23 00:13:13","EPOCH_MICROSECONDS":"849248","MEAN_MOTION":"1.00269227","ECCENTRICITY":"1.76e-05","INCLINATION":"0.0294","RA_OF_ASC_NODE":"291.154","ARG_OF_PERICENTER":"295.9224","MEAN_ANOMALY":"157.9057","EPHEMERIS_TYPE":"0","ELEMENT_SET_NO":"999","REV_AT_EPOCH":"5757","BSTAR":"0","MEAN_MOTION_DOT":"-3.51e-06","MEAN_MOTION_DDOT":"0","FILE":"2050562","TLE_LINE0":"0 NSAT 110","TLE_LINE1":"1 26559U 00060A   16175.00918807 -.00000351  00000-0  00000+0 0  9995","TLE_LINE2":"2 26559   0.0294 291.1540 0000176 295.9224 157.9057  1.00269227 57570","OBJECT_ID":"2000-060A","OBJECT_NUMBER":"26559","SEMIMAJOR_AXIS":"42165.449","PERIOD":"1436.133","APOGEE":"35788.056","PERIGEE":"35786.571"},{"ORDINAL":"1","COMMENT":"GENERATED VIA SPACETRACK.ORG API","ORIGINATOR":"JSPOC","NORAD_CAT_ID":"26561","OBJECT_NAME":"HETE 2","OBJECT_TYPE":"PAYLOAD","CLASSIFICATION_TYPE":"U","INTLDES":"00061A","EPOCH":"2016-06-22 17:49:46","EPOCH_MICROSECONDS":"737120","MEAN_MOTION":"15.06641312","ECCENTRICITY":"0.0018809","INCLINATION":"1.9487","RA_OF_ASC_NODE":"236.4115","ARG_OF_PERICENTER":"316.3371","MEAN_ANOMALY":"43.5184","EPHEMERIS_TYPE":"0","ELEMENT_SET_NO":"999","REV_AT_EPOCH":"86053","BSTAR":"4.496e-05","MEAN_MOTION_DOT":"1.576e-05","MEAN_MOTION_DDOT":"0","FILE":"2050394","TLE_LINE0":"0 HETE 2","TLE_LINE1":"1 26561U 00061A   16174.74290205  .00001576  00000-0  44960-4 0  9991","TLE_LINE2":"2 26561   1.9487 236.4115 0018809 316.3371  43.5184 15.06641312860539","OBJECT_ID":"2000-061A","OBJECT_NUMBER":"26561","SEMIMAJOR_AXIS":"6924.609","PERIOD":"95.576","APOGEE":"559.498","PERIGEE":"533.449"},{"ORDINAL":"1","COMMENT":"GENERATED VIA SPACETRACK.ORG API","ORIGINATOR":"JSPOC","NORAD_CAT_ID":"26564","OBJECT_NAME":"COSMOS 2375 (GLONASS)","OBJECT_TYPE":"PAYLOAD","CLASSIFICATION_TYPE":"U","INTLDES":"00063A","EPOCH":"2016-06-22 04:31:36","EPOCH_MICROSECONDS":"275520","MEAN_MOTION":"2.13101781","ECCENTRICITY":"0.0007182","INCLINATION":"65.0177","RA_OF_ASC_NODE":"77.1943","ARG_OF_PERICENTER":"50.4947","MEAN_ANOMALY":"309.613","EPHEMERIS_TYPE":"0","ELEMENT_SET_NO":"999","REV_AT_EPOCH":"12206","BSTAR":"0","MEAN_MOTION_DOT":"-1.2e-07","MEAN_MOTION_DDOT":"0","FILE":"2050785","TLE_LINE0":"0 COSMOS 2375 (GLONASS)","TLE_LINE1":"1 26564U 00063A   16174.18861430 -.00000012 +00000-0 +00000-0 0  9996","TLE_LINE2":"2 26564 065.0177 077.1943 0007182 050.4947 309.6130 02.13101781122066","OBJECT_ID":"2000-063A","OBJECT_NUMBER":"26564","SEMIMAJOR_AXIS":"25508.041","PERIOD":"675.733","APOGEE":"19148.226","PERIGEE":"19111.587"},{"ORDINAL":"1","COMMENT":"GENERATED VIA SPACETRACK.ORG API","ORIGINATOR":"JSPOC","NORAD_CAT_ID":"26565","OBJECT_NAME":"COSMOS 2376 (GLONASS)","OBJECT_TYPE":"PAYLOAD","CLASSIFICATION_TYPE":"U","INTLDES":"00063B","EPOCH":"2016-06-22 10:26:36","EPOCH_MICROSECONDS":"819168","MEAN_MOTION":"2.13103764","ECCENTRICITY":"0.0002956","INCLINATION":"65.0215","RA_OF_ASC_NODE":"77.2018","ARG_OF_PERICENTER":"29.8949","MEAN_ANOMALY":"210.53","EPHEMERIS_TYPE":"0","ELEMENT_SET_NO":"999","REV_AT_EPOCH":"12210","BSTAR":"0","MEAN_MOTION_DOT":"-1.1e-07","MEAN_MOTION_DDOT":"0","FILE":"2050785","TLE_LINE0":"0 COSMOS 2376 (GLONASS)","TLE_LINE1":"1 26565U 00063B   16174.43514837 -.00000011 +00000-0 +00000-0 0  9990","TLE_LINE2":"2 26565 065.0215 077.2018 0002956 029.8949 210.5300 02.13103764122107","OBJECT_ID":"2000-063B","OBJECT_NUMBER":"26565","SEMIMAJOR_AXIS":"25507.883","PERIOD":"675.727","APOGEE":"19137.288","PERIGEE":"19122.208"},{"ORDINAL":"1","COMMENT":"GENERATED VIA SPACETRACK.ORG API","ORIGINATOR":"JSPOC","NORAD_CAT_ID":"26566","OBJECT_NAME":"COSMOS 2374 (GLONASS)","OBJECT_TYPE":"PAYLOAD","CLASSIFICATION_TYPE":"U","INTLDES":"00063C","EPOCH":"2016-06-23 03:05:46","EPOCH_MICROSECONDS":"457952","MEAN_MOTION":"2.13100066","ECCENTRICITY":"0.0063833","INCLINATION":"65.0038","RA_OF_ASC_NODE":"76.9974","ARG_OF_PERICENTER":"217.4631","MEAN_ANOMALY":"47.103","EPHEMERIS_TYPE":"0","ELEMENT_SET_NO":"999","REV_AT_EPOCH":"12211","BSTAR":"0","MEAN_MOTION_DOT":"-1e-07","MEAN_MOTION_DDOT":"0","FILE":"2050562","TLE_LINE0":"0 COSMOS 2374 (GLONASS)","TLE_LINE1":"1 26566U 00063C   16175.12900993 -.00000010  00000-0  00000+0 0  9998","TLE_LINE2":"2 26566  65.0038  76.9974 0063833 217.4631  47.1030  2.13100066122119","OBJECT_ID":"2000-063C","OBJECT_NUMBER":"26566","SEMIMAJOR_AXIS":"25508.178","PERIOD":"675.738","APOGEE":"19292.870","PERIGEE":"18967.217"},{"ORDINAL":"1","COMMENT":"GENERATED VIA SPACETRACK.ORG API","ORIGINATOR":"JSPOC","NORAD_CAT_ID":"26578","OBJECT_NAME":"THURAYA 1","OBJECT_TYPE":"PAYLOAD","CLASSIFICATION_TYPE":"U","INTLDES":"00066A","EPOCH":"2016-06-22 20:51:24","EPOCH_MICROSECONDS":"192000","MEAN_MOTION":"0.9898937","ECCENTRICITY":"0.0002799","INCLINATION":"6.5569","RA_OF_ASC_NODE":"27.9542","ARG_OF_PERICENTER":"283.1536","MEAN_ANOMALY":"79.8407","EPHEMERIS_TYPE":"0","ELEMENT_SET_NO":"999","REV_AT_EPOCH":"5706","BSTAR":"0","MEAN_MOTION_DOT":"-2.45e-06","MEAN_MOTION_DDOT":"0","FILE":"2050366","TLE_LINE0":"0 THURAYA 1","TLE_LINE1":"1 26578U 00066A   16174.86903000 -.00000245  00000-0  00000+0 0  9996","TLE_LINE2":"2 26578   6.5569  27.9542 0002799 283.1536  79.8407  0.98989370 57061","OBJECT_ID":"2000-066A","OBJECT_NUMBER":"26578","SEMIMAJOR_AXIS":"42528.115","PERIOD":"1454.701","APOGEE":"36161.883","PERIGEE":"36138.076"}]